{
  "type": "FeatureCollection",
  "features": [
    {
      "type": "Feature",
      "properties": {
        "name": "Donut",
        "description": "A polygon with a hole",
        "category": "park",
        "population": 1800
      },
      "geometry": {
        "type": "Polygon",
        "coordinates": [
          [
            [
              139.731,
              35.697
            ],
            [
              139.739,
              35.697
            ],
            [
              139.739,
              35.703
            ],
            [
              139.731,
              35.703
            ],
            [
              139.731,
              35.697
            ]
          ],
          [
            [
              139.7335,
              35.6985
            ],
            [
              139.7335,
              35.7015
            ],
            [
              139.7365,
              35.7015
            ],
            [
              139.7365,
              35.6985
            ],
            [
              139.7335,
              35.6985
            ]
          ]
        ]
      }
    },
    {
      "type": "Feature",
      "properties": {
        "name": "Enclave",
        "description": "A MultiPolygon of two separate parts",
        "category": "industrial",
        "population": 4200
      },
      "geometry": {
        "type": "MultiPolygon",
        "coordinates": [
          [
            [
              [
                139.758,
                35.698
              ],
              [
                139.763,
                35.698
              ],
              [
                139.763,
                35.702
              ],
              [
                139.758,
                35.702
              ],
              [
                139.758,
                35.698
              ]
            ]
          ],
          [
            [
              [
                139.766,
                35.699
              ],
              [
                139.77,
                35.699
              ],
              [
                139.77,
                35.7025
              ],
              [
                139.766,
                35.7025
              ],
              [
                139.766,
                35.699
              ]
            ]
          ]
        ]
      }
    },
    {
      "type": "Feature",
      "properties": {
        "name": "Point cluster",
        "description": "A MultiPoint of nine points",
        "category": "facility"
      },
      "geometry": {
        "type": "MultiPoint",
        "coordinates": [
          [
            139.731,
            35.6785
          ],
          [
            139.733,
            35.6785
          ],
          [
            139.735,
            35.6785
          ],
          [
            139.731,
            35.68
          ],
          [
            139.733,
            35.68
          ],
          [
            139.735,
            35.68
          ],
          [
            139.731,
            35.6815
          ],
          [
            139.733,
            35.6815
          ],
          [
            139.735,
            35.6815
          ]
        ]
      }
    },
    {
      "type": "Feature",
      "properties": {
        "name": "Route",
        "description": "A MultiLineString of two lines",
        "category": "transport"
      },
      "geometry": {
        "type": "MultiLineString",
        "coordinates": [
          [
            [
              139.744,
              35.686
            ],
            [
              139.748,
              35.689
            ],
            [
              139.752,
              35.687
            ],
            [
              139.756,
              35.69
            ]
          ],
          [
            [
              139.745,
              35.691
            ],
            [
              139.75,
              35.692
            ],
            [
              139.755,
              35.6935
            ]
          ]
        ]
      }
    },
    {
      "type": "Feature",
      "properties": {
        "name": "Block A",
        "category": "commercial",
        "population": 12000
      },
      "geometry": {
        "type": "Polygon",
        "coordinates": [
          [
            [
              139.746,
              35.672
            ],
            [
              139.75,
              35.672
            ],
            [
              139.75,
              35.675
            ],
            [
              139.746,
              35.675
            ],
            [
              139.746,
              35.672
            ]
          ]
        ]
      }
    },
    {
      "type": "Feature",
      "properties": {
        "name": "Block B",
        "category": "residential",
        "population": 8200
      },
      "geometry": {
        "type": "Polygon",
        "coordinates": [
          [
            [
              139.751,
              35.672
            ],
            [
              139.755,
              35.672
            ],
            [
              139.755,
              35.675
            ],
            [
              139.751,
              35.675
            ],
            [
              139.751,
              35.672
            ]
          ]
        ]
      }
    },
    {
      "type": "Feature",
      "properties": {
        "name": "Block C",
        "category": "industrial",
        "population": 3100
      },
      "geometry": {
        "type": "Polygon",
        "coordinates": [
          [
            [
              139.756,
              35.672
            ],
            [
              139.76,
              35.672
            ],
            [
              139.76,
              35.675
            ],
            [
              139.756,
              35.675
            ],
            [
              139.756,
              35.672
            ]
          ]
        ]
      }
    },
    {
      "type": "Feature",
      "properties": {
        "name": "Block D",
        "category": "residential",
        "population": 6400
      },
      "geometry": {
        "type": "Polygon",
        "coordinates": [
          [
            [
              139.746,
              35.676
            ],
            [
              139.75,
              35.676
            ],
            [
              139.75,
              35.679
            ],
            [
              139.746,
              35.679
            ],
            [
              139.746,
              35.676
            ]
          ]
        ]
      }
    },
    {
      "type": "Feature",
      "properties": {
        "name": "Block E",
        "category": "commercial",
        "population": 15200
      },
      "geometry": {
        "type": "Polygon",
        "coordinates": [
          [
            [
              139.751,
              35.676
            ],
            [
              139.755,
              35.676
            ],
            [
              139.755,
              35.679
            ],
            [
              139.751,
              35.679
            ],
            [
              139.751,
              35.676
            ]
          ]
        ]
      }
    },
    {
      "type": "Feature",
      "properties": {
        "name": "Block F",
        "category": "industrial",
        "population": 900
      },
      "geometry": {
        "type": "Polygon",
        "coordinates": [
          [
            [
              139.756,
              35.676
            ],
            [
              139.76,
              35.676
            ],
            [
              139.76,
              35.679
            ],
            [
              139.756,
              35.679
            ],
            [
              139.756,
              35.676
            ]
          ]
        ]
      }
    },
    {
      "type": "Feature",
      "properties": {
        "name": "Overlap A",
        "description": "Overlapping areas to try the boolean operations on",
        "category": "commercial",
        "population": 5000
      },
      "geometry": {
        "type": "Polygon",
        "coordinates": [
          [
            [
              139.742,
              35.6955
            ],
            [
              139.7475,
              35.6955
            ],
            [
              139.7475,
              35.6995
            ],
            [
              139.742,
              35.6995
            ],
            [
              139.742,
              35.6955
            ]
          ]
        ]
      }
    },
    {
      "type": "Feature",
      "properties": {
        "name": "Overlap B",
        "description": "Overlapping areas to try the boolean operations on",
        "category": "residential",
        "population": 7000
      },
      "geometry": {
        "type": "Polygon",
        "coordinates": [
          [
            [
              139.745,
              35.6975
            ],
            [
              139.7505,
              35.6975
            ],
            [
              139.7505,
              35.7015
            ],
            [
              139.745,
              35.7015
            ],
            [
              139.745,
              35.6975
            ]
          ]
        ]
      }
    },
    {
      "type": "Feature",
      "properties": {
        "name": "Neighbor A",
        "landuse": "residential",
        "value": 40
      },
      "geometry": {
        "type": "Polygon",
        "coordinates": [
          [
            [
              139.762,
              35.676
            ],
            [
              139.766,
              35.676
            ],
            [
              139.766,
              35.679
            ],
            [
              139.762,
              35.679
            ],
            [
              139.762,
              35.676
            ]
          ]
        ]
      }
    },
    {
      "type": "Feature",
      "properties": {
        "name": "Neighbor B",
        "landuse": "commercial",
        "value": 60
      },
      "geometry": {
        "type": "Polygon",
        "coordinates": [
          [
            [
              139.766,
              35.676
            ],
            [
              139.77,
              35.676
            ],
            [
              139.77,
              35.679
            ],
            [
              139.766,
              35.679
            ],
            [
              139.766,
              35.676
            ]
          ]
        ]
      }
    }
  ]
}